SKYKRAFT-1A             
1 55054U 23001AX  26068.71064616  .00008177  00000+0  30069-3 0  9991
2 55054  97.3349 127.6290 0011277 121.5092 238.7251 15.28083228176529
STARLINK-32370          
1 61635U 24191Q   26068.32109516 -.00009212  00000+0 -32541-3 0  9990
2 61635  43.0018 156.2721 0001144 255.1076 104.9649 15.27602679 77483
